MALLIGYONG-1            
1 58400U 23179A   23361.78942292  .00007829  00000+0  34801-3 0  9991
2 58400  97.4260 246.0884 0016591 145.6685 214.5627 15.21664181  5508
